{
  "type": "FeatureCollection",
  "features": [
    {
      "type": "Feature",
      "properties": {
        "norad_id": 36390,
        "name": "IRIDIUM 33 DEB",
        "group": "iridium-33-debris",
        "lat": 18.48279122333355,
        "lon": -66.0651068915888,
        "alt_km": 651.0956753467453,
        "timestamp": "2025-12-27T08:36:18.769707+00:00",
        "meta_object_name": "IRIDIUM 33 DEB",
        "meta_object_id": "1997-051VU",
        "meta_epoch": "2025-12-25T02:44:48.274368",
        "meta_mean_motion": 14.737665,
        "meta_eccentricity": 0.00323952,
        "meta_inclination": 86.292,
        "meta_ra_of_asc_node": 293.7212,
        "meta_arg_of_pericenter": 120.9212,
        "meta_mean_anomaly": 239.5197,
        "meta_ephemeris_type": 0,
        "meta_classification_type": "U",
        "meta_norad_cat_id": 36390,
        "meta_element_set_no": 999,
        "meta_rev_at_epoch": 66444,
        "meta_bstar": 0.0011373598,
        "meta_mean_motion_dot": 7.522e-05,
        "meta_mean_motion_ddot": 0,
        "tle_line1": "1 36390U 97051VU  25359.11444762  .00007522  00000+0  11374-2 0  9999",
        "tle_line2": "2 36390  86.2920 293.7212 0032395 120.9212 239.5197 14.73766500664444"
      },
      "geometry": {
        "type": "Point",
        "coordinates": [
          -66.0651068915888,
          18.48279122333355
        ]
      }
    },
    {
      "type": "Feature",
      "properties": {
        "norad_id": 36483,
        "name": "IRIDIUM 33 DEB",
        "group": "iridium-33-debris",
        "lat": -20.54957717704574,
        "lon": 44.870066350602556,
        "alt_km": 746.7227011839095,
        "timestamp": "2025-12-27T08:36:18.769717+00:00",
        "meta_object_name": "IRIDIUM 33 DEB",
        "meta_object_id": "1997-051VZ",
        "meta_epoch": "2025-12-26T21:04:24.415104",
        "meta_mean_motion": 14.45858333,
        "meta_eccentricity": 0.0011309,
        "meta_inclination": 86.3782,
        "meta_ra_of_asc_node": 46.4363,
        "meta_arg_of_pericenter": 87.0971,
        "meta_mean_anomaly": 273.1526,
        "meta_ephemeris_type": 0,
        "meta_classification_type": "U",
        "meta_norad_cat_id": 36483,
        "meta_element_set_no": 999,
        "meta_rev_at_epoch": 65350,
        "meta_bstar": 0.00053076,
        "meta_mean_motion_dot": 1.905e-05,
        "meta_mean_motion_ddot": 0,
        "tle_line1": "1 36483U 97051VZ  25360.87806036  .00001905  00000+0  53076-3 0  9998",
        "tle_line2": "2 36483  86.3782  46.4363 0011309  87.0971 273.1526 14.45858333653501"
      },
      "geometry": {
        "type": "Point",
        "coordinates": [
          44.870066350602556,
          -20.54957717704574
        ]
      }
    },
    {
      "type": "Feature",
      "properties": {
        "norad_id": 36490,
        "name": "IRIDIUM 33 DEB",
        "group": "iridium-33-debris",
        "lat": 39.52126397266161,
        "lon": 6.87329163745714,
        "alt_km": 634.1420186593568,
        "timestamp": "2025-12-27T08:36:18.769727+00:00",
        "meta_object_name": "IRIDIUM 33 DEB",
        "meta_object_id": "1997-051WG",
        "meta_epoch": "2025-12-26T17:47:15.593280",
        "meta_mean_motion": 14.76486915,
        "meta_eccentricity": 0.0004844,
        "meta_inclination": 86.3658,
        "meta_ra_of_asc_node": 4.1463,
        "meta_arg_of_pericenter": 53.891,
        "meta_mean_anomaly": 306.2757,
        "meta_ephemeris_type": 0,
        "meta_classification_type": "U",
        "meta_norad_cat_id": 36490,
        "meta_element_set_no": 999,
        "meta_rev_at_epoch": 86691,
        "meta_bstar": 0.001756946,
        "meta_mean_motion_dot": 0.00012267,
        "meta_mean_motion_ddot": 0,
        "tle_line1": "1 36490U 97051WG  25360.74115270  .00012267  00000+0  17569-2 0  9994",
        "tle_line2": "2 36490  86.3658   4.1463 0004844  53.8910 306.2757 14.76486915866915"
      },
      "geometry": {
        "type": "Point",
        "coordinates": [
          6.87329163745714,
          39.52126397266161
        ]
      }
    },
    {
      "type": "Feature",
      "properties": {
        "norad_id": 36493,
        "name": "IRIDIUM 33 DEB",
        "group": "iridium-33-debris",
        "lat": 76.10764714538341,
        "lon": 170.25639035359887,
        "alt_km": 674.1686827515205,
        "timestamp": "2025-12-27T08:36:18.769737+00:00",
        "meta_object_name": "IRIDIUM 33 DEB",
        "meta_object_id": "1997-051WK",
        "meta_epoch": "2025-12-23T07:26:33.103968",
        "meta_mean_motion": 14.65359392,
        "meta_eccentricity": 0.00090124,
        "meta_inclination": 86.3569,
        "meta_ra_of_asc_node": 6.9826,
        "meta_arg_of_pericenter": 326.7527,
        "meta_mean_anomaly": 33.3119,
        "meta_ephemeris_type": 0,
        "meta_classification_type": "U",
        "meta_norad_cat_id": 36493,
        "meta_element_set_no": 999,
        "meta_rev_at_epoch": 74673,
        "meta_bstar": 0.0013164613,
        "meta_mean_motion_dot": 7.136e-05,
        "meta_mean_motion_ddot": 0,
        "tle_line1": "1 36493U 97051WK  25357.31010537  .00007136  00000+0  13165-2 0  9993",
        "tle_line2": "2 36493  86.3569   6.9826 0009012 326.7527  33.3119 14.65359392746733"
      },
      "geometry": {
        "type": "Point",
        "coordinates": [
          170.25639035359887,
          76.10764714538341
        ]
      }
    },
    {
      "type": "Feature",
      "properties": {
        "norad_id": 37548,
        "name": "IRIDIUM 33 DEB",
        "group": "iridium-33-debris",
        "lat": -82.68785090575638,
        "lon": 7.196960122121,
        "alt_km": 741.8292930325115,
        "timestamp": "2025-12-27T08:36:18.769747+00:00",
        "meta_object_name": "IRIDIUM 33 DEB",
        "meta_object_id": "1997-051XH",
        "meta_epoch": "2025-12-15T20:39:30.861504",
        "meta_mean_motion": 14.51326297,
        "meta_eccentricity": 0.00258157,
        "meta_inclination": 86.3522,
        "meta_ra_of_asc_node": 42.0105,
        "meta_arg_of_pericenter": 178.4192,
        "meta_mean_anomaly": 181.71,
        "meta_ephemeris_type": 0,
        "meta_classification_type": "U",
        "meta_norad_cat_id": 37548,
        "meta_element_set_no": 999,
        "meta_rev_at_epoch": 65577,
        "meta_bstar": 0.00067405053,
        "meta_mean_motion_dot": 2.715e-05,
        "meta_mean_motion_ddot": 0,
        "tle_line1": "1 37548U 97051XH  25349.86077386  .00002715  00000+0  67405-3 0  9996",
        "tle_line2": "2 37548  86.3522  42.0105 0025815 178.4192 181.7100 14.51326297655778"
      },
      "geometry": {
        "type": "Point",
        "coordinates": [
          7.196960122121,
          -82.68785090575638
        ]
      }
    },
    {
      "type": "Feature",
      "properties": {
        "norad_id": 37550,
        "name": "IRIDIUM 33 DEB",
        "group": "iridium-33-debris",
        "lat": 70.13369862637185,
        "lon": 27.492342491296505,
        "alt_km": 658.8128991491767,
        "timestamp": "2025-12-27T08:36:18.769757+00:00",
        "meta_object_name": "IRIDIUM 33 DEB",
        "meta_object_id": "1997-051XK",
        "meta_epoch": "2025-12-26T07:44:10.741056",
        "meta_mean_motion": 14.67388956,
        "meta_eccentricity": 0.0005507,
        "meta_inclination": 86.3774,
        "meta_ra_of_asc_node": 17.8536,
        "meta_arg_of_pericenter": 80.7353,
        "meta_mean_anomaly": 279.4484,
        "meta_ephemeris_type": 0,
        "meta_classification_type": "U",
        "meta_norad_cat_id": 37550,
        "meta_element_set_no": 999,
        "meta_rev_at_epoch": 86532,
        "meta_bstar": 0.001303,
        "meta_mean_motion_dot": 7.388e-05,
        "meta_mean_motion_ddot": 0,
        "tle_line1": "1 37550U 97051XK  25360.32234654  .00007388  00000+0  13030-2 0  9991",
        "tle_line2": "2 37550  86.3774  17.8536 0005507  80.7353 279.4484 14.67388956865329"
      },
      "geometry": {
        "type": "Point",
        "coordinates": [
          27.492342491296505,
          70.13369862637185
        ]
      }
    },
    {
      "type": "Feature",
      "properties": {
        "norad_id": 37562,
        "name": "IRIDIUM 33 DEB",
        "group": "iridium-33-debris",
        "lat": 73.00016255591582,
        "lon": 49.19751110585479,
        "alt_km": 679.0942720966432,
        "timestamp": "2025-12-27T08:36:18.769768+00:00",
        "meta_object_name": "IRIDIUM 33 DEB",
        "meta_object_id": "1997-051XX",
        "meta_epoch": "2025-12-26T21:32:35.047104",
        "meta_mean_motion": 14.56599093,
        "meta_eccentricity": 0.0026167,
        "meta_inclination": 86.3734,
        "meta_ra_of_asc_node": 37.4257,
        "meta_arg_of_pericenter": 63.296,
        "meta_mean_anomaly": 114.6437,
        "meta_ephemeris_type": 0,
        "meta_classification_type": "U",
        "meta_norad_cat_id": 37562,
        "meta_element_set_no": 999,
        "meta_rev_at_epoch": 86534,
        "meta_bstar": 0.0012111,
        "meta_mean_motion_dot": 5.442e-05,
        "meta_mean_motion_ddot": 0,
        "tle_line1": "1 37562U 97051XX  25360.89762786  .00005442  00000+0  12111-2 0  9996",
        "tle_line2": "2 37562  86.3734  37.4257 0026167  63.2960 114.6437 14.56599093865345"
      },
      "geometry": {
        "type": "Point",
        "coordinates": [
          49.19751110585479,
          73.00016255591582
        ]
      }
    }
  ]
}